[{"OBJECT_NAME":"THAICOM 8","OBJECT_ID":"2016-031A","EPOCH":"2026-04-25T19:07:02.122176","MEAN_MOTION":1.00271789,"ECCENTRICITY":0.0004209,"INCLINATION":0.0635,"RA_OF_ASC_NODE":41.7703,"ARG_OF_PERICENTER":345.4348,"MEAN_ANOMALY":191.8986,"EPHEMERIS_TYPE":0,"CLASSIFICATION_TYPE":"U","NORAD_CAT_ID":41552,"ELEMENT_SET_NO":999,"REV_AT_EPOCH":3619,"BSTAR":0,"MEAN_MOTION_DOT":-1.35e-6,"MEAN_MOTION_DDOT":0},{"OBJECT_NAME":"INTELSAT 31 (IS-31)","OBJECT_ID":"2016-035A","EPOCH":"2026-04-25T02:53:30.660864","MEAN_MOTION":1.00271589,"ECCENTRICITY":0.00022489,"INCLINATION":0.0102,"RA_OF_ASC_NODE":233.3487,"ARG_OF_PERICENTER":37.9364,"MEAN_ANOMALY":250.1882,"EPHEMERIS_TYPE":0,"CLASSIFICATION_TYPE":"U","NORAD_CAT_ID":41581,"ELEMENT_SET_NO":999,"REV_AT_EPOCH":3615,"BSTAR":0,"MEAN_MOTION_DOT":-1.65e-6,"MEAN_MOTION_DDOT":0},{"OBJECT_NAME":"BEIDOU-2 G7","OBJECT_ID":"2016-037A","EPOCH":"2026-04-25T19:16:08.749056","MEAN_MOTION":1.00265679,"ECCENTRICITY":0.0007663,"INCLINATION":1.5926,"RA_OF_ASC_NODE":68.7994,"ARG_OF_PERICENTER":354.2969,"MEAN_ANOMALY":190.2079,"EPHEMERIS_TYPE":0,"CLASSIFICATION_TYPE":"U","NORAD_CAT_ID":41586,"ELEMENT_SET_NO":999,"REV_AT_EPOCH":636,"BSTAR":0,"MEAN_MOTION_DOT":-3.65e-6,"MEAN_MOTION_DDOT":0},{"OBJECT_NAME":"ABS-2A (MONGOLSAT-1)","OBJECT_ID":"2016-038A","EPOCH":"2026-04-25T12:15:15.173856","MEAN_MOTION":1.0027118,"ECCENTRICITY":0.0002213,"INCLINATION":0.0141,"RA_OF_ASC_NODE":239.6549,"ARG_OF_PERICENTER":97.7673,"MEAN_ANOMALY":134.6243,"EPHEMERIS_TYPE":0,"CLASSIFICATION_TYPE":"U","NORAD_CAT_ID":41588,"ELEMENT_SET_NO":999,"REV_AT_EPOCH":3618,"BSTAR":0,"MEAN_MOTION_DOT":0,"MEAN_MOTION_DDOT":0},{"OBJECT_NAME":"EUTELSAT 117 WEST B","OBJECT_ID":"2016-038B","EPOCH":"2026-04-25T16:28:37.616736","MEAN_MOTION":1.00271513,"ECCENTRICITY":2.1e-6,"INCLINATION":0.0104,"RA_OF_ASC_NODE":97.9928,"ARG_OF_PERICENTER":322.0419,"MEAN_ANOMALY":283.8316,"EPHEMERIS_TYPE":0,"CLASSIFICATION_TYPE":"U","NORAD_CAT_ID":41589,"ELEMENT_SET_NO":999,"REV_AT_EPOCH":3613,"BSTAR":0,"MEAN_MOTION_DOT":-2.6e-7,"MEAN_MOTION_DDOT":0},{"OBJECT_NAME":"BRISAT","OBJECT_ID":"2016-039A","EPOCH":"2026-04-24T20:19:21.046368","MEAN_MOTION":1.00272013,"ECCENTRICITY":0.00021061,"INCLINATION":0.0166,"RA_OF_ASC_NODE":256.1489,"ARG_OF_PERICENTER":127.9652,"MEAN_ANOMALY":284.0915,"EPHEMERIS_TYPE":0,"CLASSIFICATION_TYPE":"U","NORAD_CAT_ID":41591,"ELEMENT_SET_NO":999,"REV_AT_EPOCH":3607,"BSTAR":0,"MEAN_MOTION_DOT":-2.11e-6,"MEAN_MOTION_DDOT":0},{"OBJECT_NAME":"ECHOSTAR 18","OBJECT_ID":"2016-039B","EPOCH":"2026-04-25T20:57:38.714400","MEAN_MOTION":1.00270316,"ECCENTRICITY":0.0001511,"INCLINATION":0.0144,"RA_OF_ASC_NODE":203.2223,"ARG_OF_PERICENTER":194.5044,"MEAN_ANOMALY":69.1828,"EPHEMERIS_TYPE":0,"CLASSIFICATION_TYPE":"U","NORAD_CAT_ID":41592,"ELEMENT_SET_NO":999,"REV_AT_EPOCH":3610,"BSTAR":0,"MEAN_MOTION_DOT":-2.96e-6,"MEAN_MOTION_DDOT":0},{"OBJECT_NAME":"MUOS-5","OBJECT_ID":"2016-041A","EPOCH":"2026-04-25T14:24:57.619296","MEAN_MOTION":1.00270619,"ECCENTRICITY":0.0194771,"INCLINATION":2.317,"RA_OF_ASC_NODE":300.7212,"ARG_OF_PERICENTER":261.731,"MEAN_ANOMALY":122.5153,"EPHEMERIS_TYPE":0,"CLASSIFICATION_TYPE":"U","NORAD_CAT_ID":41622,"ELEMENT_SET_NO":999,"REV_AT_EPOCH":3656,"BSTAR":0,"MEAN_MOTION_DOT":-1.71e-6,"MEAN_MOTION_DDOT":0},{"OBJECT_NAME":"TIANTONG-1 1","OBJECT_ID":"2016-048A","EPOCH":"2026-04-25T17:30:54.144576","MEAN_MOTION":1.00269141,"ECCENTRICITY":0.0006441,"INCLINATION":3.7515,"RA_OF_ASC_NODE":42.9578,"ARG_OF_PERICENTER":20.2339,"MEAN_ANOMALY":154.645,"EPHEMERIS_TYPE":0,"CLASSIFICATION_TYPE":"U","NORAD_CAT_ID":41725,"ELEMENT_SET_NO":999,"REV_AT_EPOCH":3574,"BSTAR":0,"MEAN_MOTION_DOT":-3.28e-6,"MEAN_MOTION_DDOT":0},{"OBJECT_NAME":"JCSAT-16","OBJECT_ID":"2016-050A","EPOCH":"2026-04-25T08:30:38.462112","MEAN_MOTION":1.00270558,"ECCENTRICITY":0.0001109,"INCLINATION":0.0156,"RA_OF_ASC_NODE":206.943,"ARG_OF_PERICENTER":200.2971,"MEAN_ANOMALY":77.736,"EPHEMERIS_TYPE":0,"CLASSIFICATION_TYPE":"U","NORAD_CAT_ID":41729,"ELEMENT_SET_NO":999,"REV_AT_EPOCH":3554,"BSTAR":0,"MEAN_MOTION_DOT":-2.65e-6,"MEAN_MOTION_DDOT":0},{"OBJECT_NAME":"USA 270","OBJECT_ID":"2016-052A","EPOCH":"2026-04-21T06:04:50.988288","MEAN_MOTION":1.00347865,"ECCENTRICITY":0.0003438,"INCLINATION":4.0526,"RA_OF_ASC_NODE":77.8945,"ARG_OF_PERICENTER":320.1673,"MEAN_ANOMALY":82.448,"EPHEMERIS_TYPE":0,"CLASSIFICATION_TYPE":"U","NORAD_CAT_ID":41744,"ELEMENT_SET_NO":999,"REV_AT_EPOCH":2756,"BSTAR":0,"MEAN_MOTION_DOT":6.0e-7,"MEAN_MOTION_DDOT":0},{"OBJECT_NAME":"USA 271","OBJECT_ID":"2016-052B","EPOCH":"2026-04-20T21:15:19.276128","MEAN_MOTION":1.00241576,"ECCENTRICITY":0.0007317,"INCLINATION":4.024,"RA_OF_ASC_NODE":77.9674,"ARG_OF_PERICENTER":143.7849,"MEAN_ANOMALY":69.2738,"EPHEMERIS_TYPE":0,"CLASSIFICATION_TYPE":"U","NORAD_CAT_ID":41745,"ELEMENT_SET_NO":999,"REV_AT_EPOCH":2734,"BSTAR":0,"MEAN_MOTION_DOT":-3.6e-6,"MEAN_MOTION_DDOT":0},{"OBJECT_NAME":"INTELSAT 36 (IS-36)","OBJECT_ID":"2016-053A","EPOCH":"2026-04-25T05:00:38.621376","MEAN_MOTION":1.00270344,"ECCENTRICITY":0.0001681,"INCLINATION":0.0144,"RA_OF_ASC_NODE":331.2817,"ARG_OF_PERICENTER":357.948,"MEAN_ANOMALY":27.6553,"EPHEMERIS_TYPE":0,"CLASSIFICATION_TYPE":"U","NORAD_CAT_ID":41747,"ELEMENT_SET_NO":999,"REV_AT_EPOCH":3542,"BSTAR":0,"MEAN_MOTION_DOT":-3.8e-7,"MEAN_MOTION_DDOT":0},{"OBJECT_NAME":"INSAT-3DR","OBJECT_ID":"2016-054A","EPOCH":"2026-04-25T19:05:39.752736","MEAN_MOTION":1.00271286,"ECCENTRICITY":0.0011677,"INCLINATION":0.1123,"RA_OF_ASC_NODE":86.1637,"ARG_OF_PERICENTER":195.1508,"MEAN_ANOMALY":292.8983,"EPHEMERIS_TYPE":0,"CLASSIFICATION_TYPE":"U","NORAD_CAT_ID":41752,"ELEMENT_SET_NO":999,"REV_AT_EPOCH":3529,"BSTAR":0,"MEAN_MOTION_DOT":-9.0e-7,"MEAN_MOTION_DDOT":0},{"OBJECT_NAME":"GSAT-18","OBJECT_ID":"2016-060A","EPOCH":"2026-04-25T19:05:47.241024","MEAN_MOTION":1.00271271,"ECCENTRICITY":0.0005009,"INCLINATION":0.0634,"RA_OF_ASC_NODE":82.2906,"ARG_OF_PERICENTER":335.1437,"MEAN_ANOMALY":156.8281,"EPHEMERIS_TYPE":0,"CLASSIFICATION_TYPE":"U","NORAD_CAT_ID":41793,"ELEMENT_SET_NO":999,"REV_AT_EPOCH":3500,"BSTAR":0,"MEAN_MOTION_DOT":-9.1e-7,"MEAN_MOTION_DDOT":0},{"OBJECT_NAME":"SKY MUSTER 2 (NBN1B)","OBJECT_ID":"2016-060B","EPOCH":"2026-04-25T19:21:56.331936","MEAN_MOTION":1.00272139,"ECCENTRICITY":0.0001647,"INCLINATION":0.0168,"RA_OF_ASC_NODE":257.8443,"ARG_OF_PERICENTER":128.3696,"MEAN_ANOMALY":262.8823,"EPHEMERIS_TYPE":0,"CLASSIFICATION_TYPE":"U","NORAD_CAT_ID":41794,"ELEMENT_SET_NO":999,"REV_AT_EPOCH":3499,"BSTAR":0,"MEAN_MOTION_DOT":-2.58e-6,"MEAN_MOTION_DDOT":0},{"OBJECT_NAME":"HIMAWARI-9","OBJECT_ID":"2016-064A","EPOCH":"2026-04-25T17:42:02.771712","MEAN_MOTION":1.00272703,"ECCENTRICITY":7.67e-5,"INCLINATION":0.0343,"RA_OF_ASC_NODE":133.3596,"ARG_OF_PERICENTER":271.8055,"MEAN_ANOMALY":214.857,"EPHEMERIS_TYPE":0,"CLASSIFICATION_TYPE":"U","NORAD_CAT_ID":41836,"ELEMENT_SET_NO":999,"REV_AT_EPOCH":3468,"BSTAR":0,"MEAN_MOTION_DOT":-2.88e-6,"MEAN_MOTION_DDOT":0}]
